{"type": "FeatureCollection", "features": [ {"type": "Feature", "properties": {"norad_id": 66660, "name": "K-HERO", "group": "last-30-days", "lat": -29.64155941866598, "lon": -83.52107387637353, "alt_km": 588.0542139516638, "timestamp": "2025-12-10T18:56:58.834275+00:00", "meta": {"OBJECT_NAME": "K-HERO", "OBJECT_ID": "2025-274L", "EPOCH": "2025-12-10T06:12:53.438112", "MEAN_MOTION": 14.92937795, "ECCENTRICITY": 0.001285, "INCLINATION": 97.7388, "RA_OF_ASC_NODE": 271.519, "ARG_OF_PERICENTER": 290.1663, "MEAN_ANOMALY": 69.8174, "EPHEMERIS_TYPE": 0, "CLASSIFICATION_TYPE": "U", "NORAD_CAT_ID": 66660, "ELEMENT_SET_NO": 999, "REV_AT_EPOCH": 203, "BSTAR": 0.00046639, "MEAN_MOTION_DOT": 4.792e-05, "MEAN_MOTION_DDOT": 0}, "tle": {"line1": "1 66660U 25274L   25344.25895183  .00004792  00000+0  46639-3 0  9995", "line2": "2 66660  97.7388 271.5190 0012850 290.1663  69.8174 14.92937795  2032"}}, "geometry": {"type": "Point", "coordinates": [-83.52107387637353, -29.64155941866598]}}, {"type": "Feature", "properties": {"norad_id": 66661, "name": "SNUGLITE-III", "group": "last-30-days", "lat": -22.100370843593566, "lon": -84.7908162976274, "alt_km": 587.4715038533013, "timestamp": "2025-12-10T18:56:58.834289+00:00", "meta": {"OBJECT_NAME": "SNUGLITE-III", "OBJECT_ID": "2025-274M", "EPOCH": "2025-12-10T07:47:25.371744", "MEAN_MOTION": 14.93077271, "ECCENTRICITY": 0.0013516, "INCLINATION": 97.7387, "RA_OF_ASC_NODE": 271.5864, "ARG_OF_PERICENTER": 291.0981, "MEAN_ANOMALY": 68.8793, "EPHEMERIS_TYPE": 0, "CLASSIFICATION_TYPE": "U", "NORAD_CAT_ID": 66661, "ELEMENT_SET_NO": 999, "REV_AT_EPOCH": 204, "BSTAR": 0.00033423, "MEAN_MOTION_DOT": 3.43e-05, "MEAN_MOTION_DDOT": 0}, "tle": {"line1": "1 66661U 25274M   25344.32459921  .00003430  00000+0  33423-3 0  9995", "line2": "2 66661  97.7387 271.5864 0013516 291.0981  68.8793 14.93077271  2045"}}, "geometry": {"type": "Point", "coordinates": [-84.7908162976274, -22.100370843593566]}}, {"type": "Feature", "properties": {"norad_id": 66662, "name": "2025-274N", "group": "last-30-days", "lat": -19.11732673252202, "lon": -85.25343880875454, "alt_km": 587.2749926818979, "timestamp": "2025-12-10T18:56:58.834299+00:00", "meta": {"OBJECT_NAME": "2025-274N", "OBJECT_ID": "2025-274N", "EPOCH": "2025-12-10T06:10:08.186016", "MEAN_MOTION": 14.9312662, "ECCENTRICITY": 0.0013971, "INCLINATION": 97.7386, "RA_OF_ASC_NODE": 271.5211, "ARG_OF_PERICENTER": 291.0451, "MEAN_ANOMALY": 68.9274, "EPHEMERIS_TYPE": 0, "CLASSIFICATION_TYPE": "U", "NORAD_CAT_ID": 66662, "ELEMENT_SET_NO": 999, "REV_AT_EPOCH": 203, "BSTAR": 0.00036205, "MEAN_MOTION_DOT": 3.726e-05, "MEAN_MOTION_DDOT": 0}, "tle": {"line1": "1 66662U 25274N   25344.25703919  .00003726  00000+0  36205-3 0  9996", "line2": "2 66662  97.7386 271.5211 0013971 291.0451  68.9274 14.93126620  2035"}}, "geometry": {"type": "Point", "coordinates": [-85.25343880875454, -19.11732673252202]}}, {"type": "Feature", "properties": {"norad_id": 66663, "name": "KSLV-II R/B", "group": "last-30-days", "lat": -13.757812814922886, "lon": 90.2414586864612, "alt_km": 603.5199078229643, "timestamp": "2025-12-10T18:56:58.834309+00:00", "meta": {"OBJECT_NAME": "KSLV-II R/B", "OBJECT_ID": "2025-274P", "EPOCH": "2025-12-10T08:27:36.540000", "MEAN_MOTION": 14.97256115, "ECCENTRICITY": 0.0049932, "INCLINATION": 97.741, "RA_OF_ASC_NODE": 271.7172, "ARG_OF_PERICENTER": 328.0407, "MEAN_ANOMALY": 31.7788, "EPHEMERIS_TYPE": 0, "CLASSIFICATION_TYPE": "U", "NORAD_CAT_ID": 66663, "ELEMENT_SET_NO": 999, "REV_AT_EPOCH": 205, "BSTAR": 0.00047864, "MEAN_MOTION_DOT": 5.626e-05, "MEAN_MOTION_DDOT": 0}, "tle": {"line1": "1 66663U 25274P   25344.35250625  .00005626  00000+0  47864-3 0  9993", "line2": "2 66663  97.7410 271.7172 0049932 328.0407  31.7788 14.97256115  2057"}}, "geometry": {"type": "Point", "coordinates": [90.2414586864612, -13.757812814922886]}}, {"type": "Feature", "properties": {"norad_id": 66664, "name": "SOYUZ-MS 28", "group": "last-30-days", "lat": -41.00927651858078, "lon": 108.58691292607661, "alt_km": 421.7758760320921, "timestamp": "2025-12-10T18:56:58.834319+00:00", "meta": {"OBJECT_NAME": "SOYUZ-MS 28", "OBJECT_ID": "2025-275A", "EPOCH": "2025-12-10T03:42:55.481184", "MEAN_MOTION": 15.4946563, "ECCENTRICITY": 0.0003395, "INCLINATION": 51.6306, "RA_OF_ASC_NODE": 155.2782, "ARG_OF_PERICENTER": 228.7831, "MEAN_ANOMALY": 131.2865, "EPHEMERIS_TYPE": 0, "CLASSIFICATION_TYPE": "U", "NORAD_CAT_ID": 66664, "ELEMENT_SET_NO": 999, "REV_AT_EPOCH": 204, "BSTAR": 0.0002721, "MEAN_MOTION_DOT": 0.00014816, "MEAN_MOTION_DDOT": 0}, "tle": {"line1": "1 66664U 25275A   25344.15480881  .00014816  00000+0  27210-3 0  9996", "line2": "2 66664  51.6306 155.2782 0003395 228.7831 131.2865 15.49465630  2047"}}, "geometry": {"type": "Point", "coordinates": [108.58691292607661, -41.00927651858078]}}, {"type": "Feature", "properties": {"norad_id": 66820, "name": "KOMPSAT-7", "group": "last-30-days", "lat": -82.18668106663674, "lon": 32.65707963873504, "alt_km": 574.2934929659905, "timestamp": "2025-12-10T18:56:58.834332+00:00", "meta": {"OBJECT_NAME": "KOMPSAT-7", "OBJECT_ID": "2025-279A", "EPOCH": "2025-12-10T06:32:10.558752", "MEAN_MOTION": 14.98382112, "ECCENTRICITY": 0.00094458, "INCLINATION": 97.6405, "RA_OF_ASC_NODE": 290.188, "ARG_OF_PERICENTER": 229.0504, "MEAN_ANOMALY": 130.9902, "EPHEMERIS_TYPE": 0, "CLASSIFICATION_TYPE": "U", "NORAD_CAT_ID": 66820, "ELEMENT_SET_NO": 999, "REV_AT_EPOCH": 128, "BSTAR": 0.00033772709, "MEAN_MOTION_DOT": 3.973e-05, "MEAN_MOTION_DDOT": 0}, "tle": {"line1": "1 66820U 25279A   25344.27234443  .00003973  00000+0  33773-3 0  9991", "line2": "2 66820  97.6405 290.1880 0009445 229.0504 130.9902 14.98382112  1281"}}, "geometry": {"type": "Point", "coordinates": [32.65707963873504, -82.18668106663674]}}, {"type": "Feature", "properties": {"norad_id": 66877, "name": "ZQ-3 R/B", "group": "last-30-days", "lat": 14.382620082001557, "lon": -124.49669188217449, "alt_km": 348.68361623797045, "timestamp": "2025-12-10T18:56:58.834342+00:00", "meta": {"OBJECT_NAME": "ZQ-3 R/B", "OBJECT_ID": "2025-282A", "EPOCH": "2025-12-10T11:32:31.043040", "MEAN_MOTION": 14.5297396, "ECCENTRICITY": 0.0806176, "INCLINATION": 56.9526, "RA_OF_ASC_NODE": 66.2848, "ARG_OF_PERICENTER": 216.0467, "MEAN_ANOMALY": 138.3546, "EPHEMERIS_TYPE": 0, "CLASSIFICATION_TYPE": "U", "NORAD_CAT_ID": 66877, "ELEMENT_SET_NO": 999, "REV_AT_EPOCH": 106, "BSTAR": 0.00026017, "MEAN_MOTION_DOT": 0.01253027, "MEAN_MOTION_DDOT": 7.3698e-06}, "tle": {"line1": "1 66877U 25282A   25344.48091485  .01253027  73698-5  26017-3 0  9997", "line2": "2 66877  56.9526  66.2848 0806176 216.0467 138.3546 14.52973960  1060"}}, "geometry": {"type": "Point", "coordinates": [-124.49669188217449, 14.382620082001557]}}, {"type": "Feature", "properties": {"norad_id": 66906, "name": "1998-067XS", "group": "last-30-days", "lat": -26.13739145322852, "lon": 129.20852202401366, "alt_km": 420.7276039244216, "timestamp": "2025-12-10T18:56:58.834352+00:00", "meta": {"OBJECT_NAME": "1998-067XS", "OBJECT_ID": "1998-067XS", "EPOCH": "2025-12-10T00:31:58.659744", "MEAN_MOTION": 15.50350034, "ECCENTRICITY": 0.0003912, "INCLINATION": 51.6303, "RA_OF_ASC_NODE": 155.8936, "ARG_OF_PERICENTER": 190.7132, "MEAN_ANOMALY": 169.3774, "EPHEMERIS_TYPE": 0, "CLASSIFICATION_TYPE": "U", "NORAD_CAT_ID": 66906, "ELEMENT_SET_NO": 999, "REV_AT_EPOCH": 119, "BSTAR": 0.00063423893, "MEAN_MOTION_DOT": 0.00036365, "MEAN_MOTION_DDOT": 0}, "tle": {"line1": "1 66906U 98067XS  25344.02220671  .00036365  00000+0  63424-3 0  9999", "line2": "2 66906  51.6303 155.8936 0003912 190.7132 169.3774 15.50350034  1196"}}, "geometry": {"type": "Point", "coordinates": [129.20852202401366, -26.13739145322852]}}, {"type": "Feature", "properties": {"norad_id": 66907, "name": "1998-067XT", "group": "last-30-days", "lat": -18.9673847357279, "lon": 136.26523409863154, "alt_km": 418.1764225931938, "timestamp": "2025-12-10T18:56:58.834364+00:00", "meta": {"OBJECT_NAME": "1998-067XT", "OBJECT_ID": "1998-067XT", "EPOCH": "2025-12-09T12:07:37.114752", "MEAN_MOTION": 15.50864429, "ECCENTRICITY": 0.00048036, "INCLINATION": 51.6307, "RA_OF_ASC_NODE": 158.4423, "ARG_OF_PERICENTER": 208.5081, "MEAN_ANOMALY": 151.5646, "EPHEMERIS_TYPE": 0, "CLASSIFICATION_TYPE": "U", "NORAD_CAT_ID": 66907, "ELEMENT_SET_NO": 999, "REV_AT_EPOCH": 111, "BSTAR": 0.0012921241, "MEAN_MOTION_DOT": 0.00076342, "MEAN_MOTION_DDOT": 0}, "tle": {"line1": "1 66907U 98067XT  25343.50529068  .00076342  00000+0  12921-2 0  9998", "line2": "2 66907  51.6307 158.4423 0004803 208.5081 151.5646 15.50864429  1113"}}, "geometry": {"type": "Point", "coordinates": [136.26523409863154, -18.9673847357279]}}, {"type": "Feature", "properties": {"norad_id": 66908, "name": "1998-067XU", "group": "last-30-days", "lat": -17.908242072062574, "lon": 137.23092094969277, "alt_km": 417.9240711174407, "timestamp": "2025-12-10T18:56:58.834374+00:00", "meta": {"OBJECT_NAME": "1998-067XU", "OBJECT_ID": "1998-067XU", "EPOCH": "2025-12-10T11:19:03.672192", "MEAN_MOTION": 15.51078724, "ECCENTRICITY": 0.0004812, "INCLINATION": 51.6304, "RA_OF_ASC_NODE": 153.6446, "ARG_OF_PERICENTER": 212.6459, "MEAN_ANOMALY": 147.4233, "EPHEMERIS_TYPE": 0, "CLASSIFICATION_TYPE": "U", "NORAD_CAT_ID": 66908, "ELEMENT_SET_NO": 999, "REV_AT_EPOCH": 126, "BSTAR": 0.001489, "MEAN_MOTION_DOT": 0.00088864, "MEAN_MOTION_DDOT": 0}, "tle": {"line1": "1 66908U 98067XU  25344.47157028  .00088864  00000+0  14890-2 0  9998", "line2": "2 66908  51.6304 153.6446 0004812 212.6459 147.4233 15.51078724  1266"}}, "geometry": {"type": "Point", "coordinates": [137.23092094969277, -17.908242072062574]}}]}